[{"OBJECT_NAME":"STARLINK-31651","OBJECT_ID":"2024-098C","EPOCH":"2026-03-09T00:26:39.628608","MEAN_MOTION":15.27560792,"ECCENTRICITY":8.768e-5,"INCLINATION":42.998,"RA_OF_ASC_NODE":281.7759,"ARG_OF_PERICENTER":256.3852,"MEAN_ANOMALY":103.6902,"EPHEMERIS_TYPE":0,"CLASSIFICATION_TYPE":"U","NORAD_CAT_ID":59860,"ELEMENT_SET_NO":999,"REV_AT_EPOCH":10174,"BSTAR":0.00014193908,"MEAN_MOTION_DOT":3.644e-5,"MEAN_MOTION_DDOT":0},{"OBJECT_NAME":"OTTER","OBJECT_ID":"2025-009Q","EPOCH":"2026-03-09T17:21:07.902432","MEAN_MOTION":15.27809545,"ECCENTRICITY":0.00035728,"INCLINATION":97.4065,"RA_OF_ASC_NODE":151.3812,"ARG_OF_PERICENTER":310.771,"MEAN_ANOMALY":49.3219,"EPHEMERIS_TYPE":0,"CLASSIFICATION_TYPE":"U","NORAD_CAT_ID":62623,"ELEMENT_SET_NO":999,"REV_AT_EPOCH":6372,"BSTAR":0.00045151206,"MEAN_MOTION_DOT":0.00012198,"MEAN_MOTION_DDOT":0}]
